[
    {
        "Altitude(m)": 707264.9315223926,
        "Argument of Periapsis(deg)": 0.0034170363559881197,
        "Eccentricity": 0.0,
        "Inclination(deg)": 45.0,
        "Latitude(deg)": 44.96014657443317,
        "Longitude(deg)": 48.12458689282561,
        "Mean Anomaly(deg)": 85.27816499424426,
        "RAAN(deg)": 64.99677441756253,
        "Satellite Name": "Constellation 1 291",
        "Satellite Number": 291,
        "Semi-Major Axis(m)": 7083131.272910544,
        "Time(s)": 57
    },
    {
        "Altitude(m)": 707266.0619626611,
        "Argument of Periapsis(deg)": 0.003476984362233526,
        "Eccentricity": 0.0,
        "Inclination(deg)": 45.0,
        "Latitude(deg)": 44.96510658404617,
        "Longitude(deg)": 48.205800271807924,
        "Mean Anomaly(deg)": 85.33886613449415,
        "RAAN(deg)": 64.99671782839697,
        "Satellite Name": "Constellation 1 291",
        "Satellite Number": 291,
        "Semi-Major Axis(m)": 7083131.272910544,
        "Time(s)": 58
    },
    {
        "Altitude(m)": 707267.1780151115,
        "Argument of Periapsis(deg)": 0.003536932368478932,
        "Eccentricity": 0.0,
        "Inclination(deg)": 45.0,
        "Latitude(deg)": 44.97000286198822,
        "Longitude(deg)": 48.287028084001534,
        "Mean Anomaly(deg)": 85.39956727474407,
        "RAAN(deg)": 64.9966612392314,
        "Satellite Name": "Constellation 1 291",
        "Satellite Number": 291,
        "Semi-Major Axis(m)": 7083131.272910544,
        "Time(s)": 59
    },
    {
        "Altitude(m)": 707268.2796732511,
        "Argument of Periapsis(deg)": 0.003596880374724337,
        "Eccentricity": 0.0,
        "Inclination(deg)": 45.0,
        "Latitude(deg)": 44.97483538672568,
        "Longitude(deg)": 48.368270481663515,
        "Mean Anomaly(deg)": 85.46026841499392,
        "RAAN(deg)": 64.99660465006583,
        "Satellite Name": "Constellation 1 291",
        "Satellite Number": 291,
        "Semi-Major Axis(m)": 7083131.272910544,
        "Time(s)": 60
    },
    {
        "Altitude(m)": 707269.3669306713,
        "Argument of Periapsis(deg)": 0.0036568283809697427,
        "Eccentricity": 0.0,
        "Inclination(deg)": 45.0,
        "Latitude(deg)": 44.979604136995704,
        "Longitude(deg)": 48.44952711250558,
        "Mean Anomaly(deg)": 85.52096955524385,
        "RAAN(deg)": 64.99654806090027,
        "Satellite Name": "Constellation 1 291",
        "Satellite Number": 291,
        "Semi-Major Axis(m)": 7083131.272910544,
        "Time(s)": 61
    },
    {
        "Altitude(m)": 707270.4397810445,
        "Argument of Periapsis(deg)": 0.003716776387215149,
        "Eccentricity": 0.0,
        "Inclination(deg)": 45.0,
        "Latitude(deg)": 44.98430909180744,
        "Longitude(deg)": 48.530797792085885,
        "Mean Anomaly(deg)": 85.58167069549374,
        "RAAN(deg)": 64.99649147173469,
        "Satellite Name": "Constellation 1 291",
        "Satellite Number": 291,
        "Semi-Major Axis(m)": 7083131.272910544,
        "Time(s)": 62
    },
    {
        "Altitude(m)": 707271.4982181322,
        "Argument of Periapsis(deg)": 0.003776724393460554,
        "Eccentricity": 0.0,
        "Inclination(deg)": 45.0,
        "Latitude(deg)": 44.98895023044231,
        "Longitude(deg)": 48.612082335715115,
        "Mean Anomaly(deg)": 85.64237183574365,
        "RAAN(deg)": 64.99643488256913,
        "Satellite Name": "Constellation 1 291",
        "Satellite Number": 291,
        "Semi-Major Axis(m)": 7083131.272910544,
        "Time(s)": 63
    },
    {
        "Altitude(m)": 707272.5422357784,
        "Argument of Periapsis(deg)": 0.003836672399705959,
        "Eccentricity": 0.0,
        "Inclination(deg)": 45.0,
        "Latitude(deg)": 44.99352753245452,
        "Longitude(deg)": 48.693380558459516,
        "Mean Anomaly(deg)": 85.70307297599355,
        "RAAN(deg)": 64.99637829340355,
        "Satellite Name": "Constellation 1 291",
        "Satellite Number": 291,
        "Semi-Major Axis(m)": 7083131.272910544,
        "Time(s)": 64
    },
    {
        "Altitude(m)": 707273.5718279097,
        "Argument of Periapsis(deg)": 0.003896620405951365,
        "Eccentricity": 0.0,
        "Inclination(deg)": 45.0,
        "Latitude(deg)": 44.998040977671366,
        "Longitude(deg)": 48.774692275144,
        "Mean Anomaly(deg)": 85.76377411624343,
        "RAAN(deg)": 64.99632170423799,
        "Satellite Name": "Constellation 1 291",
        "Satellite Number": 291,
        "Semi-Major Axis(m)": 7083131.272910544,
        "Time(s)": 65
    },
    {
        "Altitude(m)": 707274.5869885398,
        "Argument of Periapsis(deg)": 0.003956568412196771,
        "Eccentricity": 0.0,
        "Inclination(deg)": 45.0,
        "Latitude(deg)": 45.00249054619372,
        "Longitude(deg)": 48.85601730035539,
        "Mean Anomaly(deg)": 85.82447525649334,
        "RAAN(deg)": 64.9962651150724,
        "Satellite Name": "Constellation 1 291",
        "Satellite Number": 291,
        "Semi-Major Axis(m)": 7083131.272910544,
        "Time(s)": 66
    },
    {
        "Altitude(m)": 707275.5877117685,
        "Argument of Periapsis(deg)": 0.004016516418442176,
        "Eccentricity": 0.0,
        "Inclination(deg)": 45.0,
        "Latitude(deg)": 45.0068762183962,
        "Longitude(deg)": 48.937355280347994,
        "Mean Anomaly(deg)": 85.88517639674325,
        "RAAN(deg)": 64.99620852590685,
        "Satellite Name": "Constellation 1 291",
        "Satellite Number": 291,
        "Semi-Major Axis(m)": 7083131.272910544,
        "Time(s)": 67
    },
    {
        "Altitude(m)": 707276.5739917788,
        "Argument of Periapsis(deg)": 0.004076464424687581,
        "Eccentricity": 0.0,
        "Inclination(deg)": 45.0,
        "Latitude(deg)": 45.01119797492852,
        "Longitude(deg)": 49.01870636543614,
        "Mean Anomaly(deg)": 85.94587753699317,
        "RAAN(deg)": 64.99615193674128,
        "Satellite Name": "Constellation 1 291",
        "Satellite Number": 291,
        "Semi-Major Axis(m)": 7083131.272910544,
        "Time(s)": 68
    },
    {
        "Altitude(m)": 707277.5458228328,
        "Argument of Periapsis(deg)": 0.004136412430932987,
        "Eccentricity": 0.0,
        "Inclination(deg)": 45.0,
        "Latitude(deg)": 45.01545579671444,
        "Longitude(deg)": 49.10007020141339,
        "Mean Anomaly(deg)": 86.00657867724301,
        "RAAN(deg)": 64.9960953475757,
        "Satellite Name": "Constellation 1 291",
        "Satellite Number": 291,
        "Semi-Major Axis(m)": 7083131.272910544,
        "Time(s)": 69
    },
    {
        "Altitude(m)": 707278.5031992903,
        "Argument of Periapsis(deg)": 0.004196360437178394,
        "Eccentricity": 0.0,
        "Inclination(deg)": 45.0,
        "Latitude(deg)": 45.01964966495318,
        "Longitude(deg)": 49.181446601945275,
        "Mean Anomaly(deg)": 86.06727981749295,
        "RAAN(deg)": 64.99603875841014,
        "Satellite Name": "Constellation 1 291",
        "Satellite Number": 291,
        "Semi-Major Axis(m)": 7083131.272910544,
        "Time(s)": 70
    },
    {
        "Altitude(m)": 707279.4461155775,
        "Argument of Periapsis(deg)": 0.004256308443423799,
        "Eccentricity": 0.0,
        "Inclination(deg)": 45.0,
        "Latitude(deg)": 45.02377956111956,
        "Longitude(deg)": 49.26283538047474,
        "Mean Anomaly(deg)": 86.12798095774282,
        "RAAN(deg)": 64.99598216924457,
        "Satellite Name": "Constellation 1 291",
        "Satellite Number": 291,
        "Semi-Major Axis(m)": 7083131.272910544,
        "Time(s)": 71
    },
    {
        "Altitude(m)": 707280.374566219,
        "Argument of Periapsis(deg)": 0.004316256449669204,
        "Eccentricity": 0.0,
        "Inclination(deg)": 45.0,
        "Latitude(deg)": 45.027845466964315,
        "Longitude(deg)": 49.3442363502254,
        "Mean Anomaly(deg)": 86.18868209799274,
        "RAAN(deg)": 64.995925580079,
        "Satellite Name": "Constellation 1 291",
        "Satellite Number": 291,
        "Semi-Major Axis(m)": 7083131.272910544,
        "Time(s)": 72
    },
    {
        "Altitude(m)": 707281.2885458241,
        "Argument of Periapsis(deg)": 0.00437620445591461,
        "Eccentricity": 0.0,
        "Inclination(deg)": 45.0,
        "Latitude(deg)": 45.03184736451462,
        "Longitude(deg)": 49.42564932420481,
        "Mean Anomaly(deg)": 86.24938323824264,
        "RAAN(deg)": 64.99586899091342,
        "Satellite Name": "Constellation 1 291",
        "Satellite Number": 291,
        "Semi-Major Axis(m)": 7083131.272910544,
        "Time(s)": 73
    },
    {
        "Altitude(m)": 707282.1880490826,
        "Argument of Periapsis(deg)": 0.004436152462160016,
        "Eccentricity": 0.0,
        "Inclination(deg)": 45.0,
        "Latitude(deg)": 45.035785236074055,
        "Longitude(deg)": 49.50707394711056,
        "Mean Anomaly(deg)": 86.31008437849252,
        "RAAN(deg)": 64.99581240174786,
        "Satellite Name": "Constellation 1 291",
        "Satellite Number": 291,
        "Semi-Major Axis(m)": 7083131.272910544,
        "Time(s)": 74
    },
    {
        "Altitude(m)": 707283.0730707665,
        "Argument of Periapsis(deg)": 0.0044961004684054215,
        "Eccentricity": 0.0,
        "Inclination(deg)": 45.0,
        "Latitude(deg)": 45.039659064224054,
        "Longitude(deg)": 49.58851036772232,
        "Mean Anomaly(deg)": 86.37078551874244,
        "RAAN(deg)": 64.9957558125823,
        "Satellite Name": "Constellation 1 291",
        "Satellite Number": 291,
        "Semi-Major Axis(m)": 7083131.272910544,
        "Time(s)": 75
    }
]